{
  "type": "FeatureCollection",
  "features": [
    {
      "type": "Feature",
      "properties": {
        "norad_id": 31215,
        "name": "FENGYUN 1C DEB",
        "group": "fengyun-1c-debris",
        "lat": -51.27871370964602,
        "lon": -1.130119481653211,
        "alt_km": 788.2875971878057,
        "timestamp": "2025-12-12T07:43:20.795058+00:00",
        "meta_object_name": "FENGYUN 1C DEB",
        "meta_object_id": "1999-025BKV",
        "meta_epoch": "2025-12-01T19:24:11.403648",
        "meta_mean_motion": 14.33696459,
        "meta_eccentricity": 0.00702274,
        "meta_inclination": 99.0744,
        "meta_ra_of_asc_node": 179.3473,
        "meta_arg_of_pericenter": 355.6358,
        "meta_mean_anomaly": 4.4204,
        "meta_ephemeris_type": 0,
        "meta_classification_type": "U",
        "meta_norad_cat_id": 31215,
        "meta_element_set_no": 999,
        "meta_rev_at_epoch": 96369,
        "meta_bstar": 0.00097709666,
        "meta_mean_motion_dot": 2.74e-05,
        "meta_mean_motion_ddot": 0,
        "tle_line1": "1 31215U 99025BKV 25335.80846532  .00002740  00000+0  97710-3 0  9990",
        "tle_line2": "2 31215  99.0744 179.3473 0070227 355.6358   4.4204 14.33696459963691"
      },
      "geometry": {
        "type": "Point",
        "coordinates": [
          -1.130119481653211,
          -51.27871370964602
        ]
      }
    },
    {
      "type": "Feature",
      "properties": {
        "norad_id": 31217,
        "name": "FENGYUN 1C DEB",
        "group": "fengyun-1c-debris",
        "lat": 50.08579413387652,
        "lon": -16.252903351123734,
        "alt_km": 853.342593839956,
        "timestamp": "2025-12-12T07:43:20.795068+00:00",
        "meta_object_name": "FENGYUN 1C DEB",
        "meta_object_id": "1999-025BKX",
        "meta_epoch": "2025-12-11T06:04:08.976288",
        "meta_mean_motion": 14.17533133,
        "meta_eccentricity": 0.00996226,
        "meta_inclination": 98.6409,
        "meta_ra_of_asc_node": 353.1806,
        "meta_arg_of_pericenter": 164.2918,
        "meta_mean_anomaly": 196.1386,
        "meta_ephemeris_type": 0,
        "meta_classification_type": "U",
        "meta_norad_cat_id": 31217,
        "meta_element_set_no": 999,
        "meta_rev_at_epoch": 96327,
        "meta_bstar": 0.00084694913,
        "meta_mean_motion_dot": 1.763e-05,
        "meta_mean_motion_ddot": 0,
        "tle_line1": "1 31217U 99025BKX 25345.25288167  .00001763  00000+0  84695-3 0  9998",
        "tle_line2": "2 31217  98.6409 353.1806 0099622 164.2918 196.1386 14.17533133963279"
      },
      "geometry": {
        "type": "Point",
        "coordinates": [
          -16.252903351123734,
          50.08579413387652
        ]
      }
    },
    {
      "type": "Feature",
      "properties": {
        "norad_id": 31218,
        "name": "FENGYUN 1C DEB",
        "group": "fengyun-1c-debris",
        "lat": -45.72612565438924,
        "lon": -92.72230938688739,
        "alt_km": 667.9205860256452,
        "timestamp": "2025-12-12T07:43:20.795079+00:00",
        "meta_object_name": "FENGYUN 1C DEB",
        "meta_object_id": "1999-025BKY",
        "meta_epoch": "2025-12-11T06:14:01.538592",
        "meta_mean_motion": 14.72352794,
        "meta_eccentricity": 0.00116063,
        "meta_inclination": 98.8396,
        "meta_ra_of_asc_node": 95.3082,
        "meta_arg_of_pericenter": 38.7377,
        "meta_mean_anomaly": 321.4658,
        "meta_ephemeris_type": 0,
        "meta_classification_type": "U",
        "meta_norad_cat_id": 31218,
        "meta_element_set_no": 999,
        "meta_rev_at_epoch": 97061,
        "meta_bstar": 0.0092014086,
        "meta_mean_motion_dot": 0.00058727,
        "meta_mean_motion_ddot": 0,
        "tle_line1": "1 31218U 99025BKY 25345.25974003  .00058727  00000+0  92014-2 0  9995",
        "tle_line2": "2 31218  98.8396  95.3082 0011606  38.7377 321.4658 14.72352794970612"
      },
      "geometry": {
        "type": "Point",
        "coordinates": [
          -92.72230938688739,
          -45.72612565438924
        ]
      }
    },
    {
      "type": "Feature",
      "properties": {
        "norad_id": 31219,
        "name": "FENGYUN 1C DEB",
        "group": "fengyun-1c-debris",
        "lat": 4.597564072473945,
        "lon": 176.9210560689207,
        "alt_km": 791.7071905273442,
        "timestamp": "2025-12-12T07:43:20.795089+00:00",
        "meta_object_name": "FENGYUN 1C DEB",
        "meta_object_id": "1999-025BKZ",
        "meta_epoch": "2025-12-12T00:06:07.402176",
        "meta_mean_motion": 14.13780533,
        "meta_eccentricity": 0.00790258,
        "meta_inclination": 99.2861,
        "meta_ra_of_asc_node": 355.8376,
        "meta_arg_of_pericenter": 179.2926,
        "meta_mean_anomaly": 180.8371,
        "meta_ephemeris_type": 0,
        "meta_classification_type": "U",
        "meta_norad_cat_id": 31219,
        "meta_element_set_no": 999,
        "meta_rev_at_epoch": 95559,
        "meta_bstar": 0.0020020448,
        "meta_mean_motion_dot": 3.857e-05,
        "meta_mean_motion_ddot": 0,
        "tle_line1": "1 31219U 99025BKZ 25346.00425234  .00003857  00000+0  20020-2 0  9999",
        "tle_line2": "2 31219  99.2861 355.8376 0079025 179.2926 180.8371 14.13780533955595"
      },
      "geometry": {
        "type": "Point",
        "coordinates": [
          176.9210560689207,
          4.597564072473945
        ]
      }
    },
    {
      "type": "Feature",
      "properties": {
        "norad_id": 31222,
        "name": "FENGYUN 1C DEB",
        "group": "fengyun-1c-debris",
        "lat": -55.593888278447416,
        "lon": -136.5306668588909,
        "alt_km": 695.4959532233188,
        "timestamp": "2025-12-12T07:43:20.795099+00:00",
        "meta_object_name": "FENGYUN 1C DEB",
        "meta_object_id": "1999-025BLC",
        "meta_epoch": "2025-12-10T22:36:47.198880",
        "meta_mean_motion": 14.97746404,
        "meta_eccentricity": 0.0170602,
        "meta_inclination": 98.611,
        "meta_ra_of_asc_node": 54.7317,
        "meta_arg_of_pericenter": 75.4276,
        "meta_mean_anomaly": 286.5795,
        "meta_ephemeris_type": 0,
        "meta_classification_type": "U",
        "meta_norad_cat_id": 31222,
        "meta_element_set_no": 999,
        "meta_rev_at_epoch": 99957,
        "meta_bstar": 0.00088776,
        "meta_mean_motion_dot": 0.00014012,
        "meta_mean_motion_ddot": 0,
        "tle_line1": "1 31222U 99025BLC 25344.94221295  .00014012  00000+0  88776-3 0  9993",
        "tle_line2": "2 31222  98.6110  54.7317 0170602  75.4276 286.5795 14.97746404999578"
      },
      "geometry": {
        "type": "Point",
        "coordinates": [
          -136.5306668588909,
          -55.593888278447416
        ]
      }
    },
    {
      "type": "Feature",
      "properties": {
        "norad_id": 31223,
        "name": "FENGYUN 1C DEB",
        "group": "fengyun-1c-debris",
        "lat": 11.349832478697499,
        "lon": 54.48167436965159,
        "alt_km": 1078.1512235069304,
        "timestamp": "2025-12-12T07:43:20.795109+00:00",
        "meta_object_name": "FENGYUN 1C DEB",
        "meta_object_id": "1999-025BLD",
        "meta_epoch": "2025-12-11T15:14:07.835424",
        "meta_mean_motion": 13.77235069,
        "meta_eccentricity": 0.02422778,
        "meta_inclination": 99.0053,
        "meta_ra_of_asc_node": 232.0062,
        "meta_arg_of_pericenter": 43.6986,
        "meta_mean_anomaly": 318.3068,
        "meta_ephemeris_type": 0,
        "meta_classification_type": "U",
        "meta_norad_cat_id": 31223,
        "meta_element_set_no": 999,
        "meta_rev_at_epoch": 92713,
        "meta_bstar": 0.0034145871,
        "meta_mean_motion_dot": 4.164e-05,
        "meta_mean_motion_ddot": 0,
        "tle_line1": "1 31223U 99025BLD 25345.63481291  .00004164  00000+0  34146-2 0  9993",
        "tle_line2": "2 31223  99.0053 232.0062 0242277  43.6986 318.3068 13.77235069927138"
      },
      "geometry": {
        "type": "Point",
        "coordinates": [
          54.48167436965159,
          11.349832478697499
        ]
      }
    },
    {
      "type": "Feature",
      "properties": {
        "norad_id": 31224,
        "name": "FENGYUN 1C DEB",
        "group": "fengyun-1c-debris",
        "lat": -58.97371061775237,
        "lon": -7.599847230048918,
        "alt_km": 882.936950002193,
        "timestamp": "2025-12-12T07:43:20.795119+00:00",
        "meta_object_name": "FENGYUN 1C DEB",
        "meta_object_id": "1999-025BLE",
        "meta_epoch": "2025-12-07T05:24:06.867936",
        "meta_mean_motion": 14.28881555,
        "meta_eccentricity": 0.01576901,
        "meta_inclination": 98.3695,
        "meta_ra_of_asc_node": 333.3388,
        "meta_arg_of_pericenter": 179.1537,
        "meta_mean_anomaly": 197.3036,
        "meta_ephemeris_type": 0,
        "meta_classification_type": "U",
        "meta_norad_cat_id": 31224,
        "meta_element_set_no": 999,
        "meta_rev_at_epoch": 69172,
        "meta_bstar": 0.00051563663,
        "meta_mean_motion_dot": 1.444e-05,
        "meta_mean_motion_ddot": 0,
        "tle_line1": "1 31224U 99025BLE 25341.22507949  .00001444  00000+0  51564-3 0  9996",
        "tle_line2": "2 31224  98.3695 333.3388 0157690 179.1537 197.3036 14.28881555691727"
      },
      "geometry": {
        "type": "Point",
        "coordinates": [
          -7.599847230048918,
          -58.97371061775237
        ]
      }
    }
  ]
}